NORAD_CAT_ID,OBJECT_NAME,OBJECT_TYPE,EPOCH,MEAN_MOTION,ECCENTRICITY,INCLINATION,RA_OF_ASC_NODE,ARG_OF_PERICENTER,MEAN_ANOMALY,BSTAR,MEAN_MOTION_DOT,MEAN_MOTION_DDOT,TLE_LINE0,TLE_LINE1,TLE_LINE2,SEMIMAJOR_AXIS,PERIOD,APOGEE,PERIGEE,DECAYED
55932.0,STARLINK-5848,PAYLOAD,2024-01-03 13:10:16,14.98328902,0.0002643,70.0014,111.6268,255.7206,104.366,-0.00046055,-5.583e-05,0.0,0 STARLINK-5848,1 55932U 23037U   24003.54880212 -.00005583  00000-0 -46055-3 0  9994,2 55932  70.0014 111.6268 0002643 255.7206 104.3660 14.98328902 45224,6950.196,96.107,573.898,570.224,0.0
55932.0,STARLINK-5848,PAYLOAD,2024-01-03 16:22:32,14.98326086,0.0002788,70.0009,111.2899,262.1274,97.9569,-0.00048223,-5.841e-05,0.0,0 STARLINK-5848,1 55932U 23037U   24003.68232410 -.00005841  00000-0 -48223-3 0  9996,2 55932  70.0009 111.2899 0002788 262.1274  97.9569 14.98326086 45249,6950.205,96.107,574.008,570.132,0.0
55932.0,STARLINK-5848,PAYLOAD,2024-01-04 11:36:09,14.98314998,0.000338,69.9996,109.2685,272.6232,87.454,2.1326e-05,1.61e-06,0.0,0 STARLINK-5848,1 55932U 23037U   24004.48344122  .00000161  00000-0  21326-4 0  9993,2 55932  69.9996 109.2685 0003380 272.6232  87.4540 14.98314998 45703,6950.239,96.108,574.453,569.755,0.0
55932.0,STARLINK-5848,PAYLOAD,2024-01-04 13:12:17,14.98314095,0.0003298,69.9997,109.1005,270.7099,89.3682,4.9757e-05,5e-06,0.0,0 STARLINK-5848,1 55932U 23037U   24004.55020169  .00000500  00000-0  49757-4 0  9998,2 55932  69.9997 109.1005 0003298 270.7099  89.3682 14.98314095 45376,6950.242,96.108,574.399,569.815,0.0
55932.0,STARLINK-5848,PAYLOAD,2024-01-04 16:24:33,14.98321782,0.0003204,69.9999,108.7641,269.0981,90.9811,0.00010181,1.122e-05,0.0,0 STARLINK-5848,1 55932U 23037U   24004.68371606  .00001122  00000-0  10181-3 0  9996,2 55932  69.9999 108.7641 0003204 269.0981  90.9811 14.98321782 45730,6950.218,96.108,574.31,569.856,0.0
55932.0,STARLINK-5848,PAYLOAD,2024-01-05 14:50:25,14.98324541,0.0003078,70.0002,106.4081,268.4757,91.605,0.00023299,2.688e-05,0.0,0 STARLINK-5848,1 55932U 23037U   24005.61835614  .00002688  00000-0  23299-3 0  9996,2 55932  70.0002 106.4081 0003078 268.4757  91.6050 14.98324541 45531,6950.21,96.107,574.214,569.935,0.0
55932.0,STARLINK-5848,PAYLOAD,2024-01-05 16:26:33,14.98325675,0.0003069,70.0003,106.2401,268.2677,91.813,0.00024082,2.781e-05,0.0,0 STARLINK-5848,1 55932U 23037U   24005.68511539  .00002781  00000-0  24082-3 0  9995,2 55932  70.0003 106.2401 0003069 268.2677  91.8130 14.98325675 45883,6950.206,96.107,574.204,569.938,0.0
55932.0,STARLINK-5848,PAYLOAD,2024-01-06 11:40:11,14.98329291,0.0002842,70.0009,104.2218,258.9841,101.0998,2.1785e-05,1.67e-06,0.0,0 STARLINK-5848,1 55932U 23037U   24006.48624019  .00000167  00000-0  21785-4 0  9996,2 55932  70.0009 104.2218 0002842 258.9841 101.0998 14.98329291 45660,6950.195,96.107,574.035,570.085,0.0
55932.0,STARLINK-5848,PAYLOAD,2024-01-06 16:28:35,14.98331368,0.0002819,70.0008,103.7164,259.5717,100.5124,4.4319e-05,4.36e-06,0.0,0 STARLINK-5848,1 55932U 23037U   24006.68651802  .00000436  00000-0  44319-4 0  9995,2 55932  70.0008 103.7164 0002819 259.5717 100.5124 14.98331368 46031,6950.189,96.107,574.013,570.094,0.0
55932.0,STARLINK-5848,PAYLOAD,2024-01-07 13:18:19,14.9833278,0.0002818,70.0006,101.5272,263.6802,96.4036,-3.3383e-05,-4.91e-06,0.0,0 STARLINK-5848,1 55932U 23037U   24007.55439761 -.00000491  00000-0 -33383-4 0  9992,2 55932  70.0006 101.5272 0002818 263.6802  96.4036 14.98332780 45825,6950.184,96.107,574.008,570.091,0.0
55932.0,STARLINK-5848,PAYLOAD,2024-01-07 16:30:34,14.98387055,0.000265,70.0007,101.1907,256.3087,103.7778,-0.00090659,-0.00010909,0.0,0 STARLINK-5848,1 55932U 23037U   24007.68790234 -.00010909  00000-0 -90659-3 0  9994,2 55932  70.0007 101.1907 0002650 256.3087 103.7778 14.98387055 46185,6950.016,96.103,573.723,570.04,0.0
55932.0,STARLINK-5848,PAYLOAD,2024-01-08 11:44:12,14.98331439,0.0002569,70.0009,99.171,259.2952,100.7918,1.9481e-05,1.4e-06,0.0,0 STARLINK-5848,1 55932U 23037U   24008.48903513  .00000140  00000-0  19481-4 0  9998,2 55932  70.0009  99.1710 0002569 259.2952 100.7918 14.98331439 46309,6950.188,96.107,573.839,570.268,0.0
55932.0,STARLINK-5848,PAYLOAD,2024-01-08 13:20:20,14.98331621,0.0002572,70.0009,99.0028,259.794,100.2929,1.9155e-05,1.36e-06,0.0,0 STARLINK-5848,1 55932U 23037U   24008.55579499  .00000136  00000-0  19155-4 0  9991,2 55932  70.0009  99.0028 0002572 259.7940 100.2929 14.98331621 45978,6950.188,96.107,573.84,570.265,0.0
55932.0,STARLINK-5848,PAYLOAD,2024-01-08 14:56:28,14.98332075,0.0002685,70.0009,98.8345,265.6265,94.4587,2.9019e-05,2.53e-06,0.0,0 STARLINK-5848,1 55932U 23037U   24008.62255444  .00000253  00000-0  29019-4 0  9990,2 55932  70.0009  98.8345 0002685 265.6265  94.4587 14.98332075 45987,6950.186,96.107,573.918,570.185,0.0
55932.0,STARLINK-5848,PAYLOAD,2024-01-09 11:46:13,14.98325825,0.0002495,70.0019,96.6472,252.8633,107.2252,-1.9849e-05,-3.3e-06,0.0,0 STARLINK-5848,1 55932U 23037U   24009.49043697 -.00000330  00000-0 -19849-4 0  9999,2 55932  70.0019  96.6472 0002495 252.8633 107.2252 14.98325825 46451,6950.206,96.107,573.805,570.337,0.0
55932.0,STARLINK-5848,PAYLOAD,2024-01-09 13:22:21,14.98348215,0.0002759,70.001,96.4778,260.3436,99.7411,-0.00030031,-3.676e-05,0.0,0 STARLINK-5848,1 55932U 23037U   24009.55718957 -.00003676  00000-0 -30031-3 0  9995,2 55932  70.0010  96.4778 0002759 260.3436  99.7411 14.98348215 46121,6950.137,96.106,573.919,570.084,0.0
55932.0,STARLINK-5848,PAYLOAD,2024-01-09 16:34:37,14.9832935,0.0002577,70.0015,96.1419,256.6554,103.4318,8.1912e-06,5e-08,0.0,0 STARLINK-5848,1 55932U 23037U   24009.69071398  .00000005  00000-0  81912-5 0  9998,2 55932  70.0015  96.1419 0002577 256.6554 103.4318 14.98329350 46142,6950.195,96.107,573.851,570.269,0.0
55932.0,STARLINK-5848,PAYLOAD,2024-01-10 10:12:06,14.98329858,0.0002824,70.0006,94.2895,265.3663,94.7174,-3.3024e-05,-4.87e-06,0.0,0 STARLINK-5848,1 55932U 23037U   24010.42507347 -.00000487  00000-0 -33024-4 0  9995,2 55932  70.0006  94.2895 0002824 265.3663  94.7174 14.98329858 46259,6950.193,96.107,574.021,570.096,0.0
55932.0,STARLINK-5848,PAYLOAD,2024-01-10 15:00:30,14.98330527,0.0002674,70.001,93.7858,258.0243,102.0616,-3.7677e-06,-1.38e-06,0.0,0 STARLINK-5848,1 55932U 23037U   24010.62535230 -.00000138  00000-0 -37677-5 0  9991,2 55932  70.0010  93.7858 0002674 258.0243 102.0616 14.98330527 46623,6950.191,96.107,573.915,570.198,0.0
55932.0,STARLINK-5848,PAYLOAD,2024-01-11 15:02:31,14.98342462,0.0002558,70.0009,91.2617,253.3803,106.7075,-0.0003017,-3.692e-05,0.0,0 STARLINK-5848,1 55932U 23037U   24011.62675164 -.00003692  00000-0 -30170-3 0  9990,2 55932  70.0009  91.2617 0002558 253.3803 106.7075 14.98342462 46438,6950.154,96.106,573.797,570.242,0.0
55932.0,STARLINK-5848,PAYLOAD,2024-01-12 08:40:00,14.98325345,0.0002873,70.0002,89.4083,266.7533,93.3297,4.4006e-05,4.32e-06,0.0,0 STARLINK-5848,1 55932U 23037U   24012.36111510  .00000432  00000-0  44006-4 0  9993,2 55932  70.0002  89.4083 0002873 266.7533  93.3297 14.98325345 46882,6950.207,96.107,574.069,570.075,0.0
55932.0,STARLINK-5848,PAYLOAD,2024-01-12 13:28:24,14.983316,0.0002741,70.0003,88.9035,262.6816,97.4032,5.0232e-05,5.06e-06,0.0,0 STARLINK-5848,1 55932U 23037U   24012.56139114  .00000506  00000-0  50232-4 0  9995,2 55932  70.0003  88.9035 0002741 262.6816  97.4032 14.98331600 46576,6950.188,96.107,573.958,570.148,0.0
55932.0,STARLINK-5848,PAYLOAD,2024-01-12 15:04:32,14.98330519,0.000274,70.0004,88.7353,264.275,95.8096,8.8618e-05,9.65e-06,0.0,0 STARLINK-5848,1 55932U 23037U   24012.62815089  .00000965  00000-0  88618-4 0  9992,2 55932  70.0004  88.7353 0002740 264.2750  95.8096 14.98330519 46583,6950.191,96.107,573.961,570.152,0.0
55932.0,STARLINK-5848,PAYLOAD,2024-01-13 11:54:17,14.98328627,0.0002685,70.0004,86.5463,269.7325,90.3527,4.2467e-05,4.14e-06,0.0,0 STARLINK-5848,1 55932U 23037U   24013.49603351  .00000414  00000-0  42467-4 0  9996,2 55932  70.0004  86.5463 0002685 269.7325  90.3527 14.98328627 47056,6950.197,96.107,573.928,570.196,0.0
55932.0,STARLINK-5848,PAYLOAD,2024-01-13 13:30:25,14.98329684,0.0002669,70.0005,86.378,270.1202,89.9651,5.4277e-05,5.55e-06,0.0,0 STARLINK-5848,1 55932U 23037U   24013.56279254  .00000555  00000-0  54277-4 0  9993,2 55932  70.0005  86.3780 0002669 270.1202  89.9651 14.98329684 46728,6950.194,96.107,573.914,570.204,0.0
55932.0,STARLINK-5848,PAYLOAD,2024-01-14 11:56:18,14.98331648,0.0002551,70.0009,84.0218,272.429,87.6577,3.8339e-06,-4.7e-07,0.0,0 STARLINK-5848,1 55932U 23037U   24014.49743226 -.00000047  00000-0  38339-5 0  9990,2 55932  70.0009  84.0218 0002551 272.4290  87.6577 14.98331648 47204,6950.188,96.107,573.826,570.28,0.0
55932.0,STARLINK-5848,PAYLOAD,2024-01-14 13:32:26,14.98332513,0.0002546,70.001,83.8535,273.2363,86.8504,1.3538e-05,6.9e-07,0.0,0 STARLINK-5848,1 55932U 23037U   24014.56419138  .00000069  00000-0  13538-4 0  9996,2 55932  70.0010  83.8535 0002546 273.2363  86.8504 14.98332513 46874,6950.185,96.107,573.82,570.281,0.0
55932.0,STARLINK-5848,PAYLOAD,2024-01-15 11:58:18,14.98330862,0.0002576,70.0005,81.4966,263.9936,96.093,-3.0397e-06,-1.29e-06,0.0,0 STARLINK-5848,1 55932U 23037U   24015.49883029 -.00000129  00000-0 -30397-5 0  9995,2 55932  70.0005  81.4966 0002576 263.9936  96.0930 14.98330862 47350,6950.19,96.107,573.846,570.265,0.0
55932.0,STARLINK-5848,PAYLOAD,2024-01-15 13:34:26,14.98331935,0.0002571,70.0006,81.3284,264.369,95.7176,8.7897e-06,1.2e-07,0.0,0 STARLINK-5848,1 55932U 23037U   24015.56558919  .00000012  00000-0  87897-5 0  9996,2 55932  70.0006  81.3284 0002571 264.3690  95.7176 14.98331935 47024,6950.187,96.107,573.839,570.265,0.0
55932.0,STARLINK-5848,PAYLOAD,2024-01-16 12:00:20,14.98323544,0.0002564,70.0004,78.9717,260.0307,100.0563,-7.9062e-05,-1.036e-05,0.0,0 STARLINK-5848,1 55932U 23037U   24016.50023746 -.00001036  00000-0 -79062-4 0  9999,2 55932  70.0004  78.9717 0002564 260.0307 100.0563 14.98323544 47505,6950.213,96.107,573.86,570.296,0.0
